OBJECT_NAME,OBJECT_ID,EPOCH,MEAN_MOTION,ECCENTRICITY,INCLINATION,RA_OF_ASC_NODE,ARG_OF_PERICENTER,MEAN_ANOMALY,EPHEMERIS_TYPE,CLASSIFICATION_TYPE,NORAD_CAT_ID,ELEMENT_SET_NO,REV_AT_EPOCH,BSTAR,MEAN_MOTION_DOT,MEAN_MOTION_DDOT
SIRION PATHFINDER-2,2018-099B,2026-06-08T09:28:01.882272,15.14472586,.00078595,97.4257,208.6616,340.5410,19.5521,0,U,43759,999,41129,.23516906E-3,.4264E-4,0
CORVUS BC4,2018-099K,2026-06-08T09:20:20.681664,15.12425701,.00091634,97.4070,202.6273,41.5767,318.6159,0,U,43767,999,41107,.25942924E-3,.4448E-4,0
M2 PATHFINDER,2020-037E,2026-06-08T19:12:55.810080,15.04642371,.0011681,97.8162,350.9382,174.3259,185.8101,0,U,45727,999,32423,.20855E-3,.2871E-4,0
NETSAT-4,2020-068U,2026-06-08T18:18:45.173376,15.43586088,.0004934,97.8612,167.3284,12.8188,347.3184,0,U,46504,999,31447,.4154E-3,.18603E-3,0
NETSAT-3,2020-068V,2026-06-08T18:18:25.350624,15.42389149,.0005393,97.8660,165.5554,31.0112,329.1451,0,U,46505,999,31438,.44273E-3,.19055E-3,0
NETSAT-1,2020-068W,2026-06-08T17:22:03.760032,15.34443852,.0005994,97.8750,159.9436,56.2984,303.8828,0,U,46506,999,31400,.40318E-3,.13378E-3,0
NETSAT-2,2020-068X,2026-06-07T23:20:55.091904,15.45603022,.00046978,97.8623,166.3369,51.1192,309.0474,0,U,46507,999,31431,.51519351E-3,.2475E-3,0
GREENCUBE (IO-117),2022-080E,2026-06-01T11:09:37.753056,6.42583280,.00088692,70.1435,303.7143,293.3663,66.6064,0,U,53109,999,9105,0,-.3E-7,0
SITRO-AIS 5 (KATYS),2023-091L,2026-06-08T19:49:22.448928,15.29263119,.0012717,97.5063,223.6469,129.2950,230.9420,0,U,57176,999,16306,.40535E-3,.11463E-3,0
SITRO-AIS 6 (CHIRKIN),2023-091AC,2026-06-08T18:51:24.765120,15.25776164,.0012968,97.5071,222.7698,132.3937,227.8400,0,U,57192,999,16300,.4299E-3,.10937E-3,0
SITRO-AIS 8 (ANOKHIN),2023-091AD,2026-06-08T19:00:44.254368,15.31904773,.001183,97.5059,225.1676,125.6090,234.6255,0,U,57193,999,16316,.46105E-3,.14163E-3,0
SITRO-AIS 7 (FARTUSHNIY),2023-091AE,2026-06-08T18:53:29.143104,15.25467314,.0012799,97.5068,222.6004,133.2880,226.9428,0,U,57194,999,16299,.42779E-3,.10782E-3,0
SITRO-AIS 10 (BURDAEV),2023-091AK,2026-06-08T19:03:00.933984,15.38292597,.0007907,97.5082,230.1374,104.9465,255.2656,0,U,57199,999,16347,.54758E-3,.2063E-3,0
SITRO-AIS 9 (SHCHUKIN),2023-091AM,2026-06-08T19:37:13.802304,15.37812914,.0008158,97.5080,229.8982,104.9105,255.3044,0,U,57201,999,16346,.49921E-3,.18506E-3,0
SITRO-AIS 12 (SMIRENNIY),2023-091AQ,2026-06-08T19:25:59.890080,15.38103608,.000775,97.5093,230.3520,99.9551,260.2569,0,U,57204,999,16348,.5022E-3,.18793E-3,0
SITRO-AIS 11 (SHEFFER),2023-091AU,2026-06-08T19:48:37.671264,15.38520783,.0007647,97.5091,230.6095,99.9313,260.2795,0,U,57208,999,16350,.50781E-3,.19263E-3,0
SITRO-AIS 25,2024-039R,2026-06-08T20:48:48.932064,14.93470248,.0144545,95.3911,229.3752,358.0306,2.0331,0,U,59066,999,12348,.28097E-3,.3595E-4,0
SITRO-AIS 26,2024-039S,2026-06-08T20:49:09.681024,14.93267811,.0144884,95.3912,229.2750,358.6048,1.4752,0,U,59067,999,12347,.29767E-3,.3793E-4,0
SITRO-AIS 27,2024-039T,2026-06-08T20:09:39.823200,14.93684926,.0143977,95.3913,229.5239,357.3063,2.7371,0,U,59068,999,12349,.24765E-3,.3178E-4,0
SITRO-AIS 28,2024-039U,2026-06-08T21:13:55.144128,14.93721095,.014382,95.3915,229.6014,357.0500,2.9861,0,U,59071,999,12350,.27073E-3,.3479E-4,0
GRBBETA,2024-128C,2026-06-08T17:23:39.175008,15.06584103,.0041799,61.9897,245.9555,132.8784,227.5832,0,U,60237,999,10499,.29272E-3,.4223E-4,0
OOV-CUBE (TUBSAT-30),2024-128F,2026-06-08T19:18:32.916096,15.02739260,.0045688,61.9950,254.8019,131.8693,228.6311,0,U,60240,999,10485,.20896E-3,.2654E-4,0
ROBUSTA-3A (MEDITERRANEE),2024-128J,2026-06-08T19:12:05.667840,15.11578086,.0042331,61.9858,237.9014,126.3779,234.1234,0,U,60243,999,10515,.45182E-3,.7653E-4,0
LASARSAT,2024-247Q,2026-06-08T18:30:02.615040,15.45843705,.0008354,44.9752,309.4917,285.0351,74.9614,0,U,62391,999,8201,.70331E-3,.34735E-3,0
CROCUBE,2024-247T,2026-06-08T18:41:27.907008,15.47659861,.0008194,44.9726,306.9147,288.5327,71.4672,0,U,62394,999,8204,.72691E-3,.38276E-3,0
FORESAIL-1 PRIME,2025-276DS,2026-06-08T04:01:00.773184,15.18619338,.0003714,97.4199,232.6039,122.1307,238.0288,0,U,66778,999,2903,.21751E-3,.4435E-4,0
KNACKSAT-2,1998-067XZ,2026-06-08T18:20:39.945408,15.59209268,.001022,51.6310,336.8215,178.4517,181.6510,0,U,67683,999,1896,.61524E-3,.49104E-3,0
