SIRION PATHFINDER-2     
1 43759U 18099B   26159.39446623  .00004264  00000+0  23517-3 0  9991
2 43759  97.4257 208.6616 0007859 340.5410  19.5521 15.14472586411292
CORVUS BC4              
1 43767U 18099K   26159.38912826  .00004448  00000+0  25943-3 0  9991
2 43767  97.4070 202.6273 0009163  41.5767 318.6159 15.12425701411071
M2 PATHFINDER           
1 45727U 20037E   26159.80064595  .00002871  00000+0  20855-3 0  9997
2 45727  97.8162 350.9382 0011681 174.3259 185.8101 15.04642371324239
NETSAT-4                
1 46504U 20068U   26159.76302284  .00018603  00000+0  41540-3 0  9994
2 46504  97.8612 167.3284 0004934  12.8188 347.3184 15.43586088314470
NETSAT-3                
1 46505U 20068V   26159.76279341  .00019055  00000+0  44273-3 0  9990
2 46505  97.8660 165.5554 0005393  31.0112 329.1451 15.42389149314387
NETSAT-1                
1 46506U 20068W   26159.72365463  .00013378  00000+0  40318-3 0  9996
2 46506  97.8750 159.9436 0005994  56.2984 303.8828 15.34443852314006
NETSAT-2                
1 46507U 20068X   26158.97285986  .00024750  00000+0  51519-3 0  9995
2 46507  97.8623 166.3369 0004697  51.1192 309.0474 15.45603022314315
GREENCUBE (IO-117)      
1 53109U 22080E   26152.46502029 -.00000003  00000+0  00000+0 0  9996
2 53109  70.1435 303.7143 0008869 293.3663  66.6064  6.42583280 91055
SITRO-AIS 5 (KATYS)     
1 57176U 23091L   26159.82595427  .00011463  00000+0  40535-3 0  9990
2 57176  97.5063 223.6469 0012717 129.2950 230.9420 15.29263119163061
SITRO-AIS 6 (CHIRKIN)   
1 57192U 23091AC  26159.78570330  .00010937  00000+0  42990-3 0  9991
2 57192  97.5071 222.7698 0012968 132.3937 227.8400 15.25776164163002
SITRO-AIS 8 (ANOKHIN)   
1 57193U 23091AD  26159.79217887  .00014163  00000+0  46105-3 0  9995
2 57193  97.5059 225.1676 0011830 125.6090 234.6255 15.31904773163161
SITRO-AIS 7 (FARTUSHNIY)
1 57194U 23091AE  26159.78714286  .00010782  00000+0  42779-3 0  9996
2 57194  97.5068 222.6004 0012799 133.2880 226.9428 15.25467314162990
SITRO-AIS 10 (BURDAEV)  
1 57199U 23091AK  26159.79376081  .00020630  00000+0  54758-3 0  9992
2 57199  97.5082 230.1374 0007907 104.9465 255.2656 15.38292597163479
SITRO-AIS 9 (SHCHUKIN)  
1 57201U 23091AM  26159.81752086  .00018506  00000+0  49921-3 0  9997
2 57201  97.5080 229.8982 0008158 104.9105 255.3044 15.37812914163462
SITRO-AIS 12 (SMIRENNIY)
1 57204U 23091AQ  26159.80972095  .00018793  00000+0  50220-3 0  9995
2 57204  97.5093 230.3520 0007750  99.9551 260.2569 15.38103608163482
SITRO-AIS 11 (SHEFFER)  
1 57208U 23091AU  26159.82543601  .00019263  00000+0  50781-3 0  9993
2 57208  97.5091 230.6095 0007647  99.9313 260.2795 15.38520783163506
SITRO-AIS 25            
1 59066U 24039R   26159.86723301  .00003595  00000+0  28097-3 0  9997
2 59066  95.3911 229.3752 0144545 358.0306   2.0331 14.93470248123483
SITRO-AIS 26            
1 59067U 24039S   26159.86747316  .00003793  00000+0  29767-3 0  9995
2 59067  95.3912 229.2750 0144884 358.6048   1.4752 14.93267811123476
SITRO-AIS 27            
1 59068U 24039T   26159.84004425  .00003178  00000+0  24765-3 0  9991
2 59068  95.3913 229.5239 0143977 357.3063   2.7371 14.93684926123491
SITRO-AIS 28            
1 59071U 24039U   26159.88466602  .00003479  00000+0  27073-3 0  9997
2 59071  95.3915 229.6014 0143820 357.0500   2.9861 14.93721095123506
GRBBETA                 
1 60237U 24128C   26159.72475897  .00004223  00000+0  29272-3 0  9992
2 60237  61.9897 245.9555 0041799 132.8784 227.5832 15.06584103104993
OOV-CUBE (TUBSAT-30)    
1 60240U 24128F   26159.80454764  .00002654  00000+0  20896-3 0  9994
2 60240  61.9950 254.8019 0045688 131.8693 228.6311 15.02739260104851
ROBUSTA-3A (MEDITERRAN*)
1 60243U 24128J   26159.80006560  .00007653  00000+0  45182-3 0  9993
2 60243  61.9858 237.9014 0042331 126.3779 234.1234 15.11578086105151
LASARSAT                
1 62391U 24247Q   26159.77086360  .00034735  00000+0  70331-3 0  9998
2 62391  44.9752 309.4917 0008354 285.0351  74.9614 15.45843705 82015
CROCUBE                 
1 62394U 24247T   26159.77879522  .00038276  00000+0  72691-3 0  9996
2 62394  44.9726 306.9147 0008194 288.5327  71.4672 15.47659861 82048
FORESAIL-1 PRIME        
1 66778U 25276DS  26159.16737006  .00004435  00000+0  21751-3 0  9993
2 66778  97.4199 232.6039 0003714 122.1307 238.0288 15.18619338 29031
KNACKSAT-2              
1 67683U 98067XZ  26159.76435122  .00049104  00000+0  61524-3 0  9991
2 67683  51.6310 336.8215 0010220 178.4517 181.6510 15.59209268 18967
